
    {
        "ARG_OF_PERICENTER": 165.6681,
        "BSTAR": 0.00029183809,
        "CLASSIFICATION_TYPE": "U",
        "ECCENTRICITY": 0.00567175,
        "ELEMENT_SET_NO": 999,
        "EPHEMERIS_TYPE": 0,
        "EPOCH": "2026-06-19T14:59:01.195296",
        "INCLINATION": 97.689,
        "MEAN_ANOMALY": 194.6197,
        "MEAN_MOTION": 15.54087994,
        "MEAN_MOTION_DDOT": 0,
        "MEAN_MOTION_DOT": 0.0002022,
        "NORAD_CAT_ID": 40536,
        "OBJECT_ID": "2015-014A",
        "OBJECT_NAME": "KOMPSAT-3A",
        "RA_OF_ASC_NODE": 162.165,
        "REV_AT_EPOCH": 62219
    },
    {
        "ARG_OF_PERICENTER": 91.5212,
        "BSTAR": 0.00018088281,
        "CLASSIFICATION_TYPE": "U",
        "ECCENTRICITY": 0.00011234,
        "ELEMENT_SET_NO": 999,
        "EPHEMERIS_TYPE": 0,
        "EPOCH": "2026-06-19T14:12:56.086848",
        "INCLINATION": 98.5682,
        "MEAN_ANOMALY": 268.6099,
        "MEAN_MOTION": 14.30817248,
        "MEAN_MOTION_DDOT": 0,
        "MEAN_MOTION_DOT": 4.31e-06,
        "NORAD_CAT_ID": 40697,
        "OBJECT_ID": "2015-028A",
        "OBJECT_NAME": "SENTINEL-2A",
        "RA_OF_ASC_NODE": 245.4101,
        "REV_AT_EPOCH": 57407
    },
    {
        "ARG_OF_PERICENTER": 177.6866,
        "BSTAR": 0.00039841816,
        "CLASSIFICATION_TYPE": "U",
        "ECCENTRICITY": 0.00090119,
        "ELEMENT_SET_NO": 999,
        "EPHEMERIS_TYPE": 0,
        "EPOCH": "2026-06-19T14:41:22.345152",
        "INCLINATION": 97.6903,
        "MEAN_ANOMALY": 182.4426,
        "MEAN_MOTION": 15.46028994,
        "MEAN_MOTION_DDOT": 0,
        "MEAN_MOTION_DOT": 0.00019409,
        "NORAD_CAT_ID": 40701,
        "OBJECT_ID": "2015-030A",
        "OBJECT_NAME": "GAOFEN-8",
        "RA_OF_ASC_NODE": 4.1275,
        "REV_AT_EPOCH": 61182
    },
    {
        "ARG_OF_PERICENTER": 289.4968,
        "BSTAR": 0.00013761193,
        "CLASSIFICATION_TYPE": "U",
        "ECCENTRICITY": 0.00130473,
        "ELEMENT_SET_NO": 999,
        "EPHEMERIS_TYPE": 0,
        "EPOCH": "2026-06-19T14:39:11.414592",
        "INCLINATION": 97.6508,
        "MEAN_ANOMALY": 70.4836,
        "MEAN_MOTION": 14.83593085,
        "MEAN_MOTION_DDOT": 0,
        "MEAN_MOTION_DOT": 1.085e-05,
        "NORAD_CAT_ID": 40718,
        "OBJECT_ID": "2015-032D",
        "OBJECT_NAME": "CARBONITE 1 (CBNT-1)",
        "RA_OF_ASC_NODE": 348.575,
        "REV_AT_EPOCH": 58970
    },
    {
        "ARG_OF_PERICENTER": 204.4217,
        "BSTAR": 0.00052658392,
        "CLASSIFICATION_TYPE": "U",
        "ECCENTRICITY": 0.00077161,
        "ELEMENT_SET_NO": 999,
        "EPHEMERIS_TYPE": 0,
        "EPOCH": "2026-06-19T14:43:06.360384",
        "INCLINATION": 100.1156,
        "MEAN_ANOMALY": 155.6532,
        "MEAN_MOTION": 13.16071137,
        "MEAN_MOTION_DDOT": 0,
        "MEAN_MOTION_DOT": 1.58e-06,
        "NORAD_CAT_ID": 40878,
        "OBJECT_ID": "2015-040A",
        "OBJECT_NAME": "YAOGAN-27",
        "RA_OF_ASC_NODE": 156.891,
        "REV_AT_EPOCH": 51798
    },
    {
        "ARG_OF_PERICENTER": 130.1525,
        "BSTAR": 9.6978402e-05,
        "CLASSIFICATION_TYPE": "U",
        "ECCENTRICITY": 0.00285373,
        "ELEMENT_SET_NO": 999,
        "EPHEMERIS_TYPE": 0,
        "EPOCH": "2026-06-19T15:02:29.784768",
        "INCLINATION": 97.6279,
        "MEAN_ANOMALY": 230.2195,
        "MEAN_MOTION": 14.82887697,
        "MEAN_MOTION_DDOT": 0,
        "MEAN_MOTION_DOT": 7.4e-06,
        "NORAD_CAT_ID": 40894,
        "OBJECT_ID": "2015-047A",
        "OBJECT_NAME": "GAOFEN-9 01",
        "RA_OF_ASC_NODE": 206.2108,
        "REV_AT_EPOCH": 58055
    },
    {
        "ARG_OF_PERICENTER": 174.7884,
        "BSTAR": 0.00019561881,
        "CLASSIFICATION_TYPE": "U",
        "ECCENTRICITY": 0.00108665,
        "ELEMENT_SET_NO": 999,
        "EPHEMERIS_TYPE": 0,
        "EPOCH": "2026-06-19T14:46:33.040416",
        "INCLINATION": 97.3083,
        "MEAN_ANOMALY": 185.3471,
        "MEAN_MOTION": 15.27445477,
        "MEAN_MOTION_DDOT": 0,
        "MEAN_MOTION_DOT": 5.189e-05,
        "NORAD_CAT_ID": 41026,
        "OBJECT_ID": "2015-064A",
        "OBJECT_NAME": "YAOGAN-28",
        "RA_OF_ASC_NODE": 308.8276,
        "REV_AT_EPOCH": 59105
    },
    {
        "ARG_OF_PERICENTER": 49.9674,
        "BSTAR": -2.495184e-06,
        "CLASSIFICATION_TYPE": "U",
        "ECCENTRICITY": 0.0002516,
        "ELEMENT_SET_NO": 999,
        "EPHEMERIS_TYPE": 0,
        "EPOCH": "2026-06-19T14:33:35.506080",
        "INCLINATION": 98.002,
        "MEAN_ANOMALY": 310.176,
        "MEAN_MOTION": 14.83086053,
        "MEAN_MOTION_DDOT": 0,
        "MEAN_MOTION_DOT": -7.4e-07,
        "NORAD_CAT_ID": 41038,
        "OBJECT_ID": "2015-069A",
        "OBJECT_NAME": "YAOGAN-29",
        "RA_OF_ASC_NODE": 199.2438,
        "REV_AT_EPOCH": 57098
    },
    {
        "ARG_OF_PERICENTER": 272.4275,
        "BSTAR": 0.00010530968,
        "CLASSIFICATION_TYPE": "U",
        "ECCENTRICITY": 0.00082501,
        "ELEMENT_SET_NO": 999,
        "EPHEMERIS_TYPE": 0,
        "EPOCH": "2026-06-19T14:04:23.532672",
        "INCLINATION": 14.9791,
        "MEAN_ANOMALY": 87.5102,
        "MEAN_MOTION": 15.23144229,
        "MEAN_MOTION_DDOT": 0,
        "MEAN_MOTION_DOT": 3.326e-05,
        "NORAD_CAT_ID": 41167,
        "OBJECT_ID": "2015-077B",
        "OBJECT_NAME": "KENT RIDGE 1",
        "RA_OF_ASC_NODE": 248.1477,
        "REV_AT_EPOCH": 58146
    },
    {
        "ARG_OF_PERICENTER": 119.6556,
        "BSTAR": 0,
        "CLASSIFICATION_TYPE": "U",
        "ECCENTRICITY": 0.00042088,
        "ELEMENT_SET_NO": 999,
        "EPHEMERIS_TYPE": 0,
        "EPOCH": "2026-06-19T16:02:53.413728",
        "INCLINATION": 0.365,
        "MEAN_ANOMALY": 50.8733,
        "MEAN_MOTION": 1.0027352,
        "MEAN_MOTION_DDOT": 0,
        "MEAN_MOTION_DOT": -3.41e-06,
        "NORAD_CAT_ID": 41194,
        "OBJECT_ID": "2015-083A",
        "OBJECT_NAME": "GAOFEN-4",
        "RA_OF_ASC_NODE": 83.7689,
        "REV_AT_EPOCH": 3855
    },
    {
        "ARG_OF_PERICENTER": 272.7095,
        "BSTAR": 6.1661264e-05,
        "CLASSIFICATION_TYPE": "U",
        "ECCENTRICITY": 0.00084901,
        "ELEMENT_SET_NO": 999,
        "EPHEMERIS_TYPE": 0,
        "EPOCH": "2026-06-19T13:34:39.556704",
        "INCLINATION": 66.0405,
        "MEAN_ANOMALY": 87.2952,
        "MEAN_MOTION": 12.87628095,
        "MEAN_MOTION_DDOT": 0,
        "MEAN_MOTION_DOT": -4.7e-07,
        "NORAD_CAT_ID": 41240,
        "OBJECT_ID": "2016-002A",
        "OBJECT_NAME": "JASON-3",
        "RA_OF_ASC_NODE": 120.8343,
        "REV_AT_EPOCH": 48755
    },
    {
        "ARG_OF_PERICENTER": 99.4394,
        "BSTAR": 2.9912001e-05,
        "CLASSIFICATION_TYPE": "U",
        "ECCENTRICITY": 0.00014186,
        "ELEMENT_SET_NO": 999,
        "EPHEMERIS_TYPE": 0,
        "EPOCH": "2026-06-19T14:25:23.831328",
        "INCLINATION": 98.6249,
        "MEAN_ANOMALY": 260.6947,
        "MEAN_MOTION": 14.26733295,
        "MEAN_MOTION_DDOT": 0,
        "MEAN_MOTION_DOT": 2.9e-07,
        "NORAD_CAT_ID": 41335,
        "OBJECT_ID": "2016-011A",
        "OBJECT_NAME": "SENTINEL-3A",
        "RA_OF_ASC_NODE": 237.9501,
        "REV_AT_EPOCH": 53840
    },
    {
        "ARG_OF_PERICENTER": 282.0726,
        "BSTAR": 0.00019535329,
        "CLASSIFICATION_TYPE": "U",
        "ECCENTRICITY": 0.00123606,
        "ELEMENT_SET_NO": 999,
        "EPHEMERIS_TYPE": 0,
        "EPOCH": "2026-06-19T14:57:39.732192",
        "INCLINATION": 97.3833,
        "MEAN_ANOMALY": 77.9124,
        "MEAN_MOTION": 15.21198719,
        "MEAN_MOTION_DDOT": 0,
        "MEAN_MOTION_DOT": 4.296e-05,
        "NORAD_CAT_ID": 41556,
        "OBJECT_ID": "2016-033A",
        "OBJECT_NAME": "ZIYUAN 3-02 (ZY 3-02)",
        "RA_OF_ASC_NODE": 246.352,
        "REV_AT_EPOCH": 55835
    }